{
"type": "FeatureCollection",
"name": "groups_N3",
"crs": { "type": "name", "properties": { "name": "urn:ogc:def:crs:OGC:1.3:CRS84" } },
"features": [
{ "type": "Feature", "properties": { "group_id": "N3-001", "n_parks": 8, "extent_km": 0.778, "max_walk_m": 696.6, "park_area_acres": 2.44, "hull_area_acres": 6.72, "boroughs": "B", "members": "Brooklyn Heights Promenade; Brooklyn Heights Promenade; Brooklyn Heights Promenade; Brooklyn Heights Promenade; Brooklyn Heights Promenade; Brooklyn Heights Promenade; Fruit Street Sitting Area; Squibb Park" }, "geometry": { "type": "Polygon", "coordinates": [ [ [ -73.998832568665961, 40.694181868496493 ], [ -73.998857341764406, 40.694188646004079 ], [ -73.996325291938021, 40.699763445765583 ], [ -73.996244989642904, 40.699931900172061 ], [ -73.995641423305742, 40.701195435943582 ], [ -73.995240098372662, 40.701081933927867 ], [ -73.995099369574802, 40.701042132597294 ], [ -73.995299132768764, 40.70060661640921 ], [ -73.995769836465115, 40.699612169470967 ], [ -73.996078381109129, 40.698965482086038 ], [ -73.998730322297092, 40.694333064404226 ], [ -73.998832568665961, 40.694181868496493 ] ] ] } },
{ "type": "Feature", "properties": { "group_id": "N3-002", "n_parks": 5, "extent_km": 0.286, "max_walk_m": 186.6, "park_area_acres": 1.19, "hull_area_acres": 6.4, "boroughs": "M", "members": "El Jardin Del Paraiso Park; Generation X; The Secret Garden; Orchard Alley Garden; Sage Garden" }, "geometry": { "type": "Polygon", "coordinates": [ [ [ -73.978363335527646, 40.721148669985737 ], [ -73.978437427632983, 40.721154716399546 ], [ -73.978615050152385, 40.721229663822456 ], [ -73.978703702389879, 40.721267070313445 ], [ -73.981574855440101, 40.722481438003889 ], [ -73.981401449757826, 40.722719044655115 ], [ -73.98082609012458, 40.722955907618591 ], [ -73.979390073251039, 40.722657271228549 ], [ -73.979070161132725, 40.722521591395122 ], [ -73.978991383037467, 40.722488178953469 ], [ -73.978755051593112, 40.722387940404111 ], [ -73.97820327222415, 40.721366417234108 ], [ -73.97833216604198, 40.72119107182283 ], [ -73.978363335527646, 40.721148669985737 ] ] ] } },
{ "type": "Feature", "properties": { "group_id": "N3-003", "n_parks": 5, "extent_km": 0.259, "max_walk_m": 266.4, "park_area_acres": 0.83, "hull_area_acres": 3.21, "boroughs": "M", "members": "Firemen's Memorial Garden; Green Oasis and Gilbert's Garden; Earth People; La Casita Garden; De Colores Cmty Yard and Center" }, "geometry": { "type": "Polygon", "coordinates": [ [ [ -73.977160751456623, 40.723762748125203 ], [ -73.977471316569407, 40.723893437187861 ], [ -73.978094575981743, 40.724155710104725 ], [ -73.978173503619828, 40.724188923267434 ], [ -73.979868541388214, 40.725389719785632 ], [ -73.979740560043567, 40.725563782852532 ], [ -73.978915011253136, 40.725294484176949 ], [ -73.978759229762673, 40.725228895779978 ], [ -73.978572098812521, 40.725120487536024 ], [ -73.976982888086155, 40.724003646665629 ], [ -73.977160751456623, 40.723762748125203 ] ] ] } },
{ "type": "Feature", "properties": { "group_id": "N3-004", "n_parks": 3, "extent_km": 0.618, "max_walk_m": 621.0, "park_area_acres": 0.36, "hull_area_acres": 4.68, "boroughs": "B", "members": "Vernon Tandt Block Association; Vernon/throop Av Block Association; Vernon Cases Community Garden" }, "geometry": { "type": "Polygon", "coordinates": [ [ [ -73.950403005486706, 40.694108781921749 ], [ -73.95045707323311, 40.694383303150786 ], [ -73.950394058537682, 40.694390583668941 ], [ -73.950205365786275, 40.694412382844234 ], [ -73.942940574111617, 40.695248333335215 ], [ -73.942928906017087, 40.695188945933005 ], [ -73.943799795946163, 40.694866445192623 ], [ -73.950403005486706, 40.694108781921749 ] ] ] } },
{ "type": "Feature", "properties": { "group_id": "N3-005", "n_parks": 3, "extent_km": 0.71, "max_walk_m": 681.6, "park_area_acres": 1.83, "hull_area_acres": 23.25, "boroughs": "M", "members": "Murphy Brothers Playground; La Plaza Cultural; Flower Door Garden" }, "geometry": { "type": "Polygon", "coordinates": [ [ [ -73.97832022485656, 40.725000333179949 ], [ -73.978550216813403, 40.725097254828789 ], [ -73.978579964139172, 40.725109790951116 ], [ -73.979141387122581, 40.725389792967732 ], [ -73.978971787095091, 40.725620456334852 ], [ -73.973834658628533, 40.730764312666494 ], [ -73.973769710628702, 40.730769446097035 ], [ -73.972845813080554, 40.730077973704681 ], [ -73.972806555565441, 40.730047984710396 ], [ -73.972768427752811, 40.730017090958619 ], [ -73.972744440306442, 40.729996684262446 ], [ -73.972690644682316, 40.729947895471312 ], [ -73.972646203430827, 40.729904096794108 ], [ -73.97261109641093, 40.729868141048051 ], [ -73.972580433339246, 40.729834756400834 ], [ -73.972558990417809, 40.729810185419204 ], [ -73.972514866144778, 40.729755982289973 ], [ -73.972470105524948, 40.729694993659123 ], [ -73.972438849295102, 40.729647910294979 ], [ -73.97832022485656, 40.725000333179949 ] ] ] } },
{ "type": "Feature", "properties": { "group_id": "N3-006", "n_parks": 3, "extent_km": 0.884, "max_walk_m": 681.3, "park_area_acres": 2.12, "hull_area_acres": 3.57, "boroughs": "M", "members": "Broadway Malls (2/5); Broadway Malls (5/5); Broadway Malls" }, "geometry": { "type": "Polygon", "coordinates": [ [ [ -73.950996023506065, 40.825622700874227 ], [ -73.951065104178824, 40.825651726980517 ], [ -73.949042220719036, 40.828438966064837 ], [ -73.940128293487561, 40.840625242843487 ], [ -73.939925485397808, 40.840898887363181 ], [ -73.939922879565387, 40.840902397929852 ], [ -73.939920147963136, 40.840906000281208 ], [ -73.93986347163731, 40.840980703585089 ], [ -73.939861631841083, 40.840981519373301 ], [ -73.939856175322433, 40.840983937054197 ], [ -73.939849243623186, 40.840985196831632 ], [ -73.939842248010905, 40.840985016686567 ], [ -73.939838028849678, 40.840984095982854 ], [ -73.939835392319011, 40.840983520092891 ], [ -73.939834981051121, 40.840983322670375 ], [ -73.939830158440614, 40.840980997782538 ], [ -73.939828993382221, 40.840980435266914 ], [ -73.939824358244636, 40.840976657980967 ], [ -73.939823515815633, 40.840975971365559 ], [ -73.939821502606151, 40.840973183288483 ], [ -73.939821005226918, 40.840972492350609 ], [ -73.939819488909606, 40.84096831237013 ], [ -73.93981940329509, 40.840967269554206 ], [ -73.939819289540907, 40.840965875531253 ], [ -73.939819055019228, 40.840962975820446 ], [ -73.940199583824267, 40.840402079940141 ], [ -73.940229951295109, 40.840359687845122 ], [ -73.942618296263461, 40.837086233189936 ], [ -73.949518876129275, 40.827637548571204 ], [ -73.950490466509763, 40.826307336619287 ], [ -73.950996023506065, 40.825622700874227 ] ] ] } },
{ "type": "Feature", "properties": { "group_id": "N3-007", "n_parks": 3, "extent_km": 0.669, "max_walk_m": 643.3, "park_area_acres": 0.27, "hull_area_acres": 5.02, "boroughs": "M", "members": "Park; Harlem River Park; Life Spire Garden" }, "geometry": { "type": "Polygon", "coordinates": [ [ [ -73.93835981610772, 40.802522200772991 ], [ -73.938560629297839, 40.80260698370008 ], [ -73.938537428307072, 40.802639348774122 ], [ -73.935438181346825, 40.806945607234759 ], [ -73.935244476207615, 40.807209872313599 ], [ -73.934600875967263, 40.808026694120777 ], [ -73.934385007020168, 40.807639292360548 ], [ -73.93835981610772, 40.802522200772991 ] ] ] } },
{ "type": "Feature", "properties": { "group_id": "N3-008", "n_parks": 3, "extent_km": 0.178, "max_walk_m": 223.3, "park_area_acres": 0.23, "hull_area_acres": 1.87, "boroughs": "M", "members": "Miracle Garden; Brisas Del Caribe; Los Amigos Garden" }, "geometry": { "type": "Polygon", "coordinates": [ [ [ -73.981517245010195, 40.722145322619355 ], [ -73.983549210592898, 40.722492242372432 ], [ -73.983695338983352, 40.722553809376151 ], [ -73.983506184882373, 40.722812994968763 ], [ -73.981976088571997, 40.722650859421222 ], [ -73.981899832000167, 40.722618705575798 ], [ -73.981343094034514, 40.722383949350956 ], [ -73.981517245010195, 40.722145322619355 ] ] ] } },
{ "type": "Feature", "properties": { "group_id": "N3-009", "n_parks": 3, "extent_km": 0.801, "max_walk_m": 543.7, "park_area_acres": 5.25, "hull_area_acres": 19.27, "boroughs": "X", "members": "Heath Triangle; Fordham Landing Playground; Riverbend Playground" }, "geometry": { "type": "Polygon", "coordinates": [ [ [ -73.910578441638847, 40.862337240076286 ], [ -73.910651153656744, 40.862349462928961 ], [ -73.91099668874169, 40.862942438000481 ], [ -73.910930044957766, 40.863222770366185 ], [ -73.906059989648327, 40.872128169106766 ], [ -73.905557650509792, 40.872542733062822 ], [ -73.905240444308291, 40.872409525787042 ], [ -73.909734089461182, 40.863541677898262 ], [ -73.910437711469129, 40.862537988859643 ], [ -73.910578441638847, 40.862337240076286 ] ] ] } },
{ "type": "Feature", "properties": { "group_id": "N3-010", "n_parks": 3, "extent_km": 0.805, "max_walk_m": 710.3, "park_area_acres": 1.01, "hull_area_acres": 18.91, "boroughs": "X", "members": "Fairmount Playground; Garden Of Happiness; Garden of Youth" }, "geometry": { "type": "Polygon", "coordinates": [ [ [ -73.889207222697337, 40.842460033981958 ], [ -73.890128124356622, 40.842949924258598 ], [ -73.885364366620323, 40.849281142078368 ], [ -73.885198430496501, 40.849438057181864 ], [ -73.884946714691253, 40.849283443072338 ], [ -73.884654621673121, 40.848538360231522 ], [ -73.889058090763584, 40.842633495893573 ], [ -73.889207222697337, 40.842460033981958 ] ] ] } },
{ "type": "Feature", "properties": { "group_id": "N3-011", "n_parks": 2, "extent_km": 0.241, "max_walk_m": 231.6, "park_area_acres": 2.86, "hull_area_acres": 7.06, "boroughs": "B", "members": "Lafayette Playground; Jesse Owens Playground" }, "geometry": { "type": "Polygon", "coordinates": [ [ [ -73.933075284856855, 40.690853557277123 ], [ -73.933131667598971, 40.691131246242499 ], [ -73.932989085809055, 40.691450863554721 ], [ -73.932653357245911, 40.691942247880583 ], [ -73.930497419025443, 40.692649025193781 ], [ -73.929692549486518, 40.692742394988215 ], [ -73.929634880629166, 40.69246363108887 ], [ -73.931783868299121, 40.691002539986854 ], [ -73.933075284856855, 40.690853557277123 ] ] ] } },
{ "type": "Feature", "properties": { "group_id": "N3-012", "n_parks": 2, "extent_km": 0.726, "max_walk_m": 700.7, "park_area_acres": 0.36, "hull_area_acres": 5.09, "boroughs": "B", "members": "Weeksville Playground; Garden of Plenty" }, "geometry": { "type": "Polygon", "coordinates": [ [ [ -73.919326928348127, 40.677048637716688 ], [ -73.919656731991012, 40.677066708591127 ], [ -73.927928973923201, 40.677546312349968 ], [ -73.928180189920496, 40.677561080288775 ], [ -73.928191497414147, 40.677612948900496 ], [ -73.928202811984519, 40.677664852635303 ], [ -73.919621658848641, 40.67744589727382 ], [ -73.919291749794311, 40.677431287806684 ], [ -73.919321529868398, 40.677099591376177 ], [ -73.919326928348127, 40.677048637716688 ] ] ] } },
{ "type": "Feature", "properties": { "group_id": "N3-013", "n_parks": 2, "extent_km": 0.325, "max_walk_m": 360.2, "park_area_acres": 0.72, "hull_area_acres": 3.43, "boroughs": "B", "members": "Elton Playground; Elton St Block Association" }, "geometry": { "type": "Polygon", "coordinates": [ [ [ -73.88052936451615, 40.665440165895028 ], [ -73.88124241708104, 40.666398771216393 ], [ -73.88198468130544, 40.668579175869489 ], [ -73.882001367839152, 40.668643807738853 ], [ -73.882017777191336, 40.668707368607038 ], [ -73.881699172690219, 40.668753979936838 ], [ -73.880332466462463, 40.665659158722129 ], [ -73.880412333547781, 40.665491175635282 ], [ -73.88052936451615, 40.665440165895028 ] ] ] } },
{ "type": "Feature", "properties": { "group_id": "N3-014", "n_parks": 2, "extent_km": 0.826, "max_walk_m": 749.4, "park_area_acres": 0.86, "hull_area_acres": 10.2, "boroughs": "B", "members": "Decatur Playground; Bed-Stuy Farm" }, "geometry": { "type": "Polygon", "coordinates": [ [ [ -73.936813599377302, 40.681147468728284 ], [ -73.936885787495754, 40.68141707284019 ], [ -73.93693896617971, 40.681678915753743 ], [ -73.936401727110649, 40.681741206718947 ], [ -73.926765811519516, 40.682125944912336 ], [ -73.926709475502832, 40.681843242964369 ], [ -73.926799301770089, 40.681832846971957 ], [ -73.936813599377302, 40.681147468728284 ] ] ] } },
{ "type": "Feature", "properties": { "group_id": "N3-015", "n_parks": 2, "extent_km": 0.556, "max_walk_m": 483.8, "park_area_acres": 3.21, "hull_area_acres": 10.13, "boroughs": "B", "members": "Raymond Bush Playground; Hattie Carthan Playground" }, "geometry": { "type": "Polygon", "coordinates": [ [ [ -73.946556854463282, 40.685273803253857 ], [ -73.946611203812751, 40.685550557307479 ], [ -73.946631586727989, 40.685832240299412 ], [ -73.945740265354289, 40.685934674760453 ], [ -73.938903859504379, 40.686718526892747 ], [ -73.93879492875358, 40.686171473483135 ], [ -73.945630339342685, 40.685380379990363 ], [ -73.946556854463282, 40.685273803253857 ] ] ] } },
{ "type": "Feature", "properties": { "group_id": "N3-016", "n_parks": 2, "extent_km": 0.404, "max_walk_m": 345.9, "park_area_acres": 2.0, "hull_area_acres": 7.18, "boroughs": "B", "members": "Albert L. Parham Playground; Oracle Playground" }, "geometry": { "type": "Polygon", "coordinates": [ [ [ -73.971097992034544, 40.689932200243156 ], [ -73.971925366693256, 40.694092648361284 ], [ -73.971199049245669, 40.694175375501679 ], [ -73.971160446531584, 40.693984111321335 ], [ -73.971115441793984, 40.693761124951614 ], [ -73.970556392742054, 40.690957546699515 ], [ -73.970370456456394, 40.690015192934887 ], [ -73.970639865869785, 40.689984460828029 ], [ -73.971097992034544, 40.689932200243156 ] ] ] } },
{ "type": "Feature", "properties": { "group_id": "N3-017", "n_parks": 2, "extent_km": 0.66, "max_walk_m": 696.1, "park_area_acres": 0.9, "hull_area_acres": 8.03, "boroughs": "B", "members": "Kennedy King Playground; East Flatbush Children's Playground" }, "geometry": { "type": "Polygon", "coordinates": [ [ [ -73.922107710312119, 40.658240332748917 ], [ -73.922506902926372, 40.658597329585639 ], [ -73.927050179797519, 40.663102972494094 ], [ -73.927082288697207, 40.663299900682404 ], [ -73.926915338211487, 40.663409385785073 ], [ -73.921956577588972, 40.658952238473745 ], [ -73.921558283508674, 40.658594057074666 ], [ -73.922107710312119, 40.658240332748917 ] ] ] } },
{ "type": "Feature", "properties": { "group_id": "N3-018", "n_parks": 2, "extent_km": 0.954, "max_walk_m": 799.1, "park_area_acres": 0.31, "hull_area_acres": 7.03, "boroughs": "B", "members": "Clifton Pl Memorial Park and Garden; Hattie Carthan Herban Farm" }, "geometry": { "type": "Polygon", "coordinates": [ [ [ -73.954781105835792, 40.688416727757868 ], [ -73.954803269205186, 40.688527197955523 ], [ -73.95482565430143, 40.688638780368557 ], [ -73.943711382997293, 40.690382360859857 ], [ -73.943708621496853, 40.69038268099235 ], [ -73.943640085637398, 40.690390625095766 ], [ -73.943562782525902, 40.690399585140689 ], [ -73.943497490865269, 40.690407152534497 ], [ -73.943443322400171, 40.690129951508283 ], [ -73.954451327344685, 40.688454628187976 ], [ -73.954781105835792, 40.688416727757868 ] ] ] } },
{ "type": "Feature", "properties": { "group_id": "N3-019", "n_parks": 2, "extent_km": 0.05, "max_walk_m": 0.0, "park_area_acres": 0.24, "hull_area_acres": 0.56, "boroughs": "B", "members": "Concerned Residents of Barbey Street; Jerome-Glenmore Cornerstone Community Garden" }, "geometry": { "type": "Polygon", "coordinates": [ [ [ -73.887385408811539, 40.67403379559628 ], [ -73.887761250058915, 40.674044998766988 ], [ -73.887832826460709, 40.674323096494362 ], [ -73.887737282752113, 40.674337253968034 ], [ -73.887206480876841, 40.674415902750468 ], [ -73.887114915537509, 40.674429469267253 ], [ -73.887027712424967, 40.674086794175878 ], [ -73.887385408811539, 40.67403379559628 ] ] ] } },
{ "type": "Feature", "properties": { "group_id": "N3-020", "n_parks": 2, "extent_km": 0.408, "max_walk_m": 461.0, "park_area_acres": 0.27, "hull_area_acres": 3.45, "boroughs": "B", "members": "Concerned Residents of Montauk Avenue; Shield Of Faith" }, "geometry": { "type": "Polygon", "coordinates": [ [ [ -73.878331279506696, 40.673782249101379 ], [ -73.878350462983036, 40.673858541280971 ], [ -73.878358394947668, 40.673890089335686 ], [ -73.878695831159135, 40.677599420209091 ], [ -73.878340807264181, 40.677651467072145 ], [ -73.878324650734129, 40.677586192332882 ], [ -73.878291269283579, 40.677451325545015 ], [ -73.877962804929041, 40.673832538978054 ], [ -73.878331279506696, 40.673782249101379 ] ] ] } },
{ "type": "Feature", "properties": { "group_id": "N3-021", "n_parks": 2, "extent_km": 0.375, "max_walk_m": 482.0, "park_area_acres": 0.12, "hull_area_acres": 3.84, "boroughs": "B", "members": "Lefferts Pl Block Association; Brooklyn's Finest Garden" }, "geometry": { "type": "Polygon", "coordinates": [ [ [ -73.957642705472693, 40.680203389436215 ], [ -73.961953632655593, 40.681054780370332 ], [ -73.962012550843767, 40.681067099061174 ], [ -73.961876314290791, 40.681455076604749 ], [ -73.961817394602178, 40.681442757844351 ], [ -73.957527090717264, 40.680521417511521 ], [ -73.95762464940502, 40.68025305696446 ], [ -73.957642705472693, 40.680203389436215 ] ] ] } },
{ "type": "Feature", "properties": { "group_id": "N3-022", "n_parks": 2, "extent_km": 0.458, "max_walk_m": 472.6, "park_area_acres": 0.16, "hull_area_acres": 3.42, "boroughs": "B", "members": "Gregory's Garden; Warwick Street Greenery Glow Garden" }, "geometry": { "type": "Polygon", "coordinates": [ [ [ -73.88452668739987, 40.668622641622008 ], [ -73.886088477862742, 40.672532428745974 ], [ -73.886105258277965, 40.672597629203594 ], [ -73.886124195909829, 40.672671212894933 ], [ -73.885765968651071, 40.672724334001501 ], [ -73.884233052304808, 40.668719642802792 ], [ -73.884219940975242, 40.668668733324282 ], [ -73.88452668739987, 40.668622641622008 ] ] ] } },
{ "type": "Feature", "properties": { "group_id": "N3-023", "n_parks": 2, "extent_km": 0.576, "max_walk_m": 618.9, "park_area_acres": 0.47, "hull_area_acres": 8.97, "boroughs": "B", "members": "Nehemiah Ten Garden; Oriental Garden" }, "geometry": { "type": "Polygon", "coordinates": [ [ [ -73.886351802157122, 40.668547632440834 ], [ -73.88769184106286, 40.673775325624767 ], [ -73.886975463132146, 40.673881470294432 ], [ -73.885641849570703, 40.668654265948135 ], [ -73.886351802157122, 40.668547632440834 ] ] ] } },
{ "type": "Feature", "properties": { "group_id": "N3-024", "n_parks": 2, "extent_km": 0.205, "max_walk_m": 136.2, "park_area_acres": 0.13, "hull_area_acres": 1.72, "boroughs": "B", "members": "Welcome Home Garden; Halsey Ralph & Howard Community Garden" }, "geometry": { "type": "Polygon", "coordinates": [ [ [ -73.922915070147454, 40.684529196000568 ], [ -73.925328211226784, 40.684714580384579 ], [ -73.92538383288867, 40.684994085622584 ], [ -73.925313102162875, 40.685002286644853 ], [ -73.925293660202144, 40.685004540618422 ], [ -73.922874293361616, 40.684816221978167 ], [ -73.922755993427799, 40.684592937582948 ], [ -73.922746925240915, 40.684548805399722 ], [ -73.922762811947536, 40.684546951999863 ], [ -73.922915070147454, 40.684529196000568 ] ] ] } },
{ "type": "Feature", "properties": { "group_id": "N3-025", "n_parks": 2, "extent_km": 0.57, "max_walk_m": 483.0, "park_area_acres": 2.33, "hull_area_acres": 11.64, "boroughs": "B", "members": "Berriman Playground; Park" }, "geometry": { "type": "Polygon", "coordinates": [ [ [ -73.87555075383348, 40.653859726653579 ], [ -73.875874859661934, 40.654295987931825 ], [ -73.875930073072368, 40.654482428609498 ], [ -73.869401542264598, 40.657242746516275 ], [ -73.868983558424148, 40.65668265158245 ], [ -73.869545898924812, 40.656436304815685 ], [ -73.87555075383348, 40.653859726653579 ] ] ] } },
{ "type": "Feature", "properties": { "group_id": "N3-026", "n_parks": 2, "extent_km": 0.518, "max_walk_m": 413.6, "park_area_acres": 0.4, "hull_area_acres": 4.22, "boroughs": "B", "members": "Imani II Community Garden; Kingsborough Houses Pacific Playground" }, "geometry": { "type": "Polygon", "coordinates": [ [ [ -73.92667829589486, 40.675987140392934 ], [ -73.927126744314592, 40.676011818455642 ], [ -73.933058543622451, 40.676406433422365 ], [ -73.933037679072129, 40.676650266330867 ], [ -73.927096511791689, 40.676330268259655 ], [ -73.926648061242858, 40.676305589179549 ], [ -73.92667829589486, 40.675987140392934 ] ] ] } },
{ "type": "Feature", "properties": { "group_id": "N3-027", "n_parks": 2, "extent_km": 0.528, "max_walk_m": 200.0, "park_area_acres": 2.82, "hull_area_acres": 11.14, "boroughs": "M", "members": "Andrew Haswell Green Park; East River Walk (5/6)" }, "geometry": { "type": "Polygon", "coordinates": [ [ [ -73.961768697625544, 40.754474641416955 ], [ -73.961883565217519, 40.754542044496247 ], [ -73.961947248813033, 40.754586851289694 ], [ -73.962059275703581, 40.755163996050371 ], [ -73.957952111970059, 40.759480371445306 ], [ -73.957848609819791, 40.759579864618573 ], [ -73.957758665653984, 40.759663330982576 ], [ -73.957636038605088, 40.759771207851891 ], [ -73.957488732266143, 40.759885987759468 ], [ -73.957339669421529, 40.759994762260717 ], [ -73.957208086049661, 40.760085229496397 ], [ -73.956551779433823, 40.7605226858729 ], [ -73.956371923782541, 40.760446109219657 ], [ -73.960465981836194, 40.755770116301342 ], [ -73.960625268267137, 40.755598069882637 ], [ -73.961595445916828, 40.754632090295956 ], [ -73.961679410797274, 40.754551673404762 ], [ -73.961768697625544, 40.754474641416955 ] ] ] } },
{ "type": "Feature", "properties": { "group_id": "N3-028", "n_parks": 2, "extent_km": 0.274, "max_walk_m": 88.1, "park_area_acres": 7.23, "hull_area_acres": 11.9, "boroughs": "M", "members": "Harlem River Park; Crack Is Wack Playground" }, "geometry": { "type": "Polygon", "coordinates": [ [ [ -73.93164124848002, 40.804022695082438 ], [ -73.931977450261243, 40.804056645552755 ], [ -73.932008886163032, 40.804060484914451 ], [ -73.932034791929354, 40.804066088686554 ], [ -73.932056515689837, 40.804071602639716 ], [ -73.932076376368599, 40.804077273078349 ], [ -73.932091934486365, 40.804082536655116 ], [ -73.932122970980416, 40.804094568488914 ], [ -73.932168250175451, 40.804117693836595 ], [ -73.932199878383116, 40.80413986831627 ], [ -73.934544461023236, 40.805832216794073 ], [ -73.934549648015661, 40.805836018942564 ], [ -73.934554776895538, 40.805839865182271 ], [ -73.934559847662783, 40.805843755513145 ], [ -73.934564861503446, 40.805847689035467 ], [ -73.93456981486132, 40.805851666647619 ], [ -73.934574710110113, 40.805855684749055 ], [ -73.934579543691044, 40.805859746939667 ], [ -73.934584316792709, 40.805863849618241 ], [ -73.934589029415179, 40.805867992784734 ], [ -73.934593678002159, 40.805872177337612 ], [ -73.934598264926535, 40.805876400576736 ], [ -73.934602787817255, 40.80588066340129 ], [ -73.934607247860328, 40.805884964911513 ], [ -73.934611642686306, 40.805889304205444 ], [ -73.934615972294452, 40.805893682183672 ], [ -73.934620236686442, 40.805898097045187 ], [ -73.934624434678071, 40.805902547888849 ], [ -73.934628566269311, 40.805907034714615 ], [ -73.934632630276866, 40.805911555720854 ], [ -73.934636626698932, 40.805916112708616 ], [ -73.934640555537271, 40.805920703876858 ], [ -73.93464441442265, 40.805925328323696 ], [ -73.934648204540025, 40.805929986049868 ], [ -73.934651924705207, 40.805934676154259 ], [ -73.934655574919134, 40.805939397736275 ], [ -73.934659153997458, 40.805944149894856 ], [ -73.934662661939456, 40.805948933530424 ], [ -73.934666098746717, 40.805953746842057 ], [ -73.934669463234272, 40.805958589828982 ], [ -73.934672754218653, 40.805963460689647 ], [ -73.934675974069265, 40.805968360325885 ], [ -73.934679120417599, 40.805973286935263 ], [ -73.934682192078611, 40.80597824051727 ], [ -73.93468518905307, 40.805983220171292 ], [ -73.934688112526146, 40.805988225898048 ], [ -73.934690961315354, 40.805993254995414 ], [ -73.934693734233747, 40.805998309263657 ], [ -73.934696431282319, 40.806003387802306 ], [ -73.934699052462747, 40.806008488810384 ], [ -73.93470159777587, 40.806013611387385 ], [ -73.934704067220864, 40.806018756433879 ], [ -73.934706458430171, 40.806023921246897 ], [ -73.935126073324454, 40.806959002535308 ], [ -73.935129830504152, 40.806968367131518 ], [ -73.935133165691553, 40.806977825141949 ], [ -73.935138531040479, 40.806996959249375 ], [ -73.935142172975205, 40.80701635353148 ], [ -73.935143394330836, 40.807026599188923 ], [ -73.935142588857858, 40.807057801905763 ], [ -73.935138461386202, 40.807093976206112 ], [ -73.935129498450365, 40.807127886633822 ], [ -73.935113410044281, 40.807161101467642 ], [ -73.935082483575513, 40.807208000922877 ], [ -73.935013736345539, 40.807305740104184 ], [ -73.934946695078636, 40.807395418043981 ], [ -73.934932160617294, 40.807411252308974 ], [ -73.934915028222846, 40.807429641620189 ], [ -73.934881071111079, 40.807459589228301 ], [ -73.934849368883704, 40.80748145342649 ], [ -73.93481798384353, 40.80749889184591 ], [ -73.934774957734859, 40.807517065681807 ], [ -73.93472424306934, 40.80753102081632 ], [ -73.934676681832983, 40.807540326641437 ], [ -73.934636534749231, 40.80754359971003 ], [ -73.934595622937039, 40.807543576506895 ], [ -73.934551088083111, 40.807540041990457 ], [ -73.934504438845451, 40.807533015023559 ], [ -73.934460287049973, 40.807520801686714 ], [ -73.934423446532534, 40.807507176908565 ], [ -73.934385228462077, 40.807487997060825 ], [ -73.934349920037889, 40.807465074585203 ], [ -73.934326579668834, 40.807446330925856 ], [ -73.931254456470796, 40.804507499855781 ], [ -73.931125117222962, 40.804354200980384 ], [ -73.931111933702084, 40.804332051638049 ], [ -73.931104879682977, 40.804307318824321 ], [ -73.93110717023059, 40.804282317843281 ], [ -73.931110775639453, 40.8042647332557 ], [ -73.931119677997231, 40.804249741667711 ], [ -73.931144556766071, 40.804218241772567 ], [ -73.931170591879095, 40.804195015445124 ], [ -73.931200673138164, 40.804176047284152 ], [ -73.931231240076329, 40.804158402237817 ], [ -73.931286249998649, 40.804128342169903 ], [ -73.931328652465922, 40.804106958977023 ], [ -73.931370004162588, 40.804089774169128 ], [ -73.931413491343747, 40.804074875182472 ], [ -73.931453123111282, 40.804061487625546 ], [ -73.931500832002939, 40.804048366899877 ], [ -73.931551092661721, 40.80403722246362 ], [ -73.931595088067098, 40.804029334093805 ], [ -73.93164124848002, 40.804022695082438 ] ] ] } },
{ "type": "Feature", "properties": { "group_id": "N3-029", "n_parks": 2, "extent_km": 0.195, "max_walk_m": 92.4, "park_area_acres": 3.4, "hull_area_acres": 5.62, "boroughs": "M", "members": "Frederick Douglass Playground; Happy Warrior Playground" }, "geometry": { "type": "Polygon", "coordinates": [ [ [ -73.968600757326698, 40.794952260771147 ], [ -73.968986180750889, 40.795114913462854 ], [ -73.96921347103364, 40.795375907748223 ], [ -73.968899764064417, 40.795805242192884 ], [ -73.967465817721745, 40.797745680738416 ], [ -73.966842756528379, 40.797482435754681 ], [ -73.967906019948686, 40.795649103165168 ], [ -73.967992486937419, 40.795528245909253 ], [ -73.968600757326698, 40.794952260771147 ] ] ] } },
{ "type": "Feature", "properties": { "group_id": "N3-030", "n_parks": 2, "extent_km": 0.161, "max_walk_m": 81.8, "park_area_acres": 0.17, "hull_area_acres": 0.88, "boroughs": "M", "members": "Unity Gardens; Collyer Brothers Park" }, "geometry": { "type": "Polygon", "coordinates": [ [ [ -73.94095712590331, 40.808467879333563 ], [ -73.942656903176953, 40.809184091204706 ], [ -73.942835517706101, 40.809259349880826 ], [ -73.942659046235818, 40.809502901884855 ], [ -73.94248043243698, 40.809427643839363 ], [ -73.94092149708392, 40.808517051692874 ], [ -73.94095712590331, 40.808467879333563 ] ] ] } },
{ "type": "Feature", "properties": { "group_id": "N3-031", "n_parks": 2, "extent_km": 0.185, "max_walk_m": 157.6, "park_area_acres": 0.23, "hull_area_acres": 1.51, "boroughs": "M", "members": "6BC Botanical Garden; The Creative Little Garden" }, "geometry": { "type": "Polygon", "coordinates": [ [ [ -73.980642710969406, 40.723669830455869 ], [ -73.98084087648482, 40.723752822119181 ], [ -73.980884807870069, 40.723771221422638 ], [ -73.982711844967312, 40.724549332302686 ], [ -73.98254046016072, 40.724784968791333 ], [ -73.982463351065789, 40.724752600878368 ], [ -73.980707292320474, 40.724014160922351 ], [ -73.980598099246919, 40.723968141859764 ], [ -73.980465553594499, 40.72391227886898 ], [ -73.980642710969406, 40.723669830455869 ] ] ] } },
{ "type": "Feature", "properties": { "group_id": "N3-032", "n_parks": 2, "extent_km": 0.282, "max_walk_m": 248.8, "park_area_acres": 0.19, "hull_area_acres": 2.35, "boroughs": "M", "members": "Edward P. Bowman Park; Harlem Rose Garden" }, "geometry": { "type": "Polygon", "coordinates": [ [ [ -73.93997386054491, 40.808370714799928 ], [ -73.942968190369641, 40.809610662936493 ], [ -73.943027132240744, 40.809635551226108 ], [ -73.943020047255914, 40.80965500478419 ], [ -73.942841386164218, 40.809901593349274 ], [ -73.942777042845975, 40.809874482557632 ], [ -73.93979408651596, 40.808616586724725 ], [ -73.93997386054491, 40.808370714799928 ] ] ] } },
{ "type": "Feature", "properties": { "group_id": "N3-033", "n_parks": 2, "extent_km": 0.016, "max_walk_m": 0.0, "park_area_acres": 0.3, "hull_area_acres": 0.3, "boroughs": "M", "members": "Merchant's House Museum; Manuel Plaza" }, "geometry": { "type": "Polygon", "coordinates": [ [ [ -73.992140626534706, 40.727462708001404 ], [ -73.992438202699049, 40.727608949846363 ], [ -73.992180688298461, 40.727912653545687 ], [ -73.99187934177678, 40.727771615716172 ], [ -73.992140626534706, 40.727462708001404 ] ] ] } },
{ "type": "Feature", "properties": { "group_id": "N3-034", "n_parks": 2, "extent_km": 0.036, "max_walk_m": 35.4, "park_area_acres": 0.18, "hull_area_acres": 0.37, "boroughs": "M", "members": "Sugar Hill Garden; Edgecombe Park" }, "geometry": { "type": "Polygon", "coordinates": [ [ [ -73.942151604680873, 40.826166641804726 ], [ -73.942469647441129, 40.82630203732694 ], [ -73.942276835484236, 40.826565741127865 ], [ -73.942192079350477, 40.826681657272999 ], [ -73.941874035339737, 40.826546261894244 ], [ -73.942099673053093, 40.826237666639614 ], [ -73.942151604680873, 40.826166641804726 ] ] ] } },
{ "type": "Feature", "properties": { "group_id": "N3-035", "n_parks": 2, "extent_km": 0.291, "max_walk_m": 312.8, "park_area_acres": 0.14, "hull_area_acres": 1.99, "boroughs": "M", "members": "Family Community Garden; Mission Garden" }, "geometry": { "type": "Polygon", "coordinates": [ [ [ -73.943843762121006, 40.794983997227682 ], [ -73.943901567196107, 40.795008526181505 ], [ -73.946692345598663, 40.796682439221513 ], [ -73.946601966978164, 40.796806576310082 ], [ -73.946576865629623, 40.796801684870623 ], [ -73.9465495751503, 40.796794533056563 ], [ -73.946403052108224, 40.796751359894742 ], [ -73.946356446669554, 40.796731635278931 ], [ -73.943663360495307, 40.795231597135668 ], [ -73.943843762121006, 40.794983997227682 ] ] ] } },
{ "type": "Feature", "properties": { "group_id": "N3-036", "n_parks": 2, "extent_km": 0.609, "max_walk_m": 639.6, "park_area_acres": 0.18, "hull_area_acres": 4.93, "boroughs": "M", "members": "117th St Community Garden; St. Mark's Garden" }, "geometry": { "type": "Polygon", "coordinates": [ [ [ -73.934041053508366, 40.796400260011225 ], [ -73.940617982963474, 40.79867844779276 ], [ -73.940727121622061, 40.798724512288089 ], [ -73.940547377510825, 40.79897182476531 ], [ -73.933988983563452, 40.796700745033839 ], [ -73.933917543944574, 40.796670736363424 ], [ -73.933859739669828, 40.796646454548309 ], [ -73.934041053508366, 40.796400260011225 ] ] ] } },
{ "type": "Feature", "properties": { "group_id": "N3-037", "n_parks": 2, "extent_km": 0.192, "max_walk_m": 253.3, "park_area_acres": 0.17, "hull_area_acres": 1.73, "boroughs": "M", "members": "Peachtree Garden; Hope Garden" }, "geometry": { "type": "Polygon", "coordinates": [ [ [ -73.981996202547606, 40.721495813267346 ], [ -73.984252155646487, 40.721935560163374 ], [ -73.984309873196722, 40.721959955641566 ], [ -73.984117862258543, 40.72221966326493 ], [ -73.981962972170777, 40.721822582265986 ], [ -73.981883615866948, 40.721789120380592 ], [ -73.981806026558687, 40.721756403440956 ], [ -73.981996202547606, 40.721495813267346 ] ] ] } },
{ "type": "Feature", "properties": { "group_id": "N3-038", "n_parks": 2, "extent_km": 0.125, "max_walk_m": 119.0, "park_area_acres": 0.21, "hull_area_acres": 1.04, "boroughs": "M", "members": "Lower East Side Ecology Center; Sam and Sadie Koenig Garden" }, "geometry": { "type": "Polygon", "coordinates": [ [ [ -73.978408405700236, 40.723975881854045 ], [ -73.979617597774165, 40.724484639633438 ], [ -73.979826897509298, 40.72457275529824 ], [ -73.979657176220073, 40.724815858411525 ], [ -73.979455376978351, 40.724730916273565 ], [ -73.979443642553534, 40.724725976687374 ], [ -73.978211389292994, 40.724204864953975 ], [ -73.978294934793297, 40.724091668711388 ], [ -73.978408405700236, 40.723975881854045 ] ] ] } },
{ "type": "Feature", "properties": { "group_id": "N3-039", "n_parks": 2, "extent_km": 0.829, "max_walk_m": 718.0, "park_area_acres": 4.13, "hull_area_acres": 19.47, "boroughs": "Q", "members": "Tepper Triangle; Joseph Austin Playground" }, "geometry": { "type": "Polygon", "coordinates": [ [ [ -73.801482447845629, 40.715295441663208 ], [ -73.801533371448258, 40.715493263116926 ], [ -73.801705417178283, 40.716161607506287 ], [ -73.791883439266002, 40.718831425610276 ], [ -73.791851291706081, 40.71883744235037 ], [ -73.791751693307589, 40.718851809116103 ], [ -73.791650977355829, 40.718860571685646 ], [ -73.791549687276415, 40.718863682412255 ], [ -73.791448369950771, 40.718861124274788 ], [ -73.791347574526, 40.718852912676553 ], [ -73.79124784296269, 40.718839090025142 ], [ -73.791245221466582, 40.718837931715463 ], [ -73.791242905174698, 40.718836444371533 ], [ -73.791240962591772, 40.71883467314327 ], [ -73.791239453906741, 40.718832673071098 ], [ -73.791238423908126, 40.71883050367007 ], [ -73.791237905526614, 40.718828231637787 ], [ -73.79123791275309, 40.718825924538066 ], [ -73.79123844536187, 40.718823654411516 ], [ -73.791239488938842, 40.718821488770395 ], [ -73.791241010135792, 40.718819494192161 ], [ -73.791242963791845, 40.718817730028697 ], [ -73.791733191720184, 40.718458743397477 ], [ -73.799367933136793, 40.715650153019148 ], [ -73.799419565311211, 40.715631762669403 ], [ -73.799463185911904, 40.715617456574194 ], [ -73.799501015563635, 40.715605931065753 ], [ -73.799550875743705, 40.715591945580279 ], [ -73.799586589375863, 40.715582747786577 ], [ -73.799622902622019, 40.7155740796263 ], [ -73.79965783536386, 40.715566378003764 ], [ -73.799703525692507, 40.715557229052969 ], [ -73.799752929770762, 40.715548489973479 ], [ -73.79979287008868, 40.715542286467944 ], [ -73.801482447845629, 40.715295441663208 ] ] ] } },
{ "type": "Feature", "properties": { "group_id": "N3-040", "n_parks": 2, "extent_km": 0.117, "max_walk_m": 185.9, "park_area_acres": 0.43, "hull_area_acres": 1.77, "boroughs": "Q", "members": "Spargo Park; Crosson Green" }, "geometry": { "type": "Polygon", "coordinates": [ [ [ -73.896929652985818, 40.740750649293943 ], [ -73.896998048995712, 40.740791418839201 ], [ -73.897033829792903, 40.740815361116773 ], [ -73.897078897591854, 40.740848417617315 ], [ -73.897109347084935, 40.740872402833631 ], [ -73.897117395214764, 40.740878742394045 ], [ -73.897164339732868, 40.740920949696033 ], [ -73.89719337922233, 40.740948764390744 ], [ -73.897226072041278, 40.740982946226396 ], [ -73.897237713041321, 40.740998007700348 ], [ -73.897265694234946, 40.741034211462676 ], [ -73.897292352676601, 40.741072154719902 ], [ -73.897318813536671, 40.741110796588487 ], [ -73.897346569308496, 40.741161197534289 ], [ -73.897367593105926, 40.741203964273147 ], [ -73.897387693203243, 40.741254578109604 ], [ -73.897397557611669, 40.741280889827536 ], [ -73.897404610131844, 40.741304902745092 ], [ -73.89741058477037, 40.741329234382157 ], [ -73.897415992790727, 40.741351709567837 ], [ -73.89742106649561, 40.741374473518349 ], [ -73.897426779401627, 40.741404247589699 ], [ -73.897433407202826, 40.741466521797605 ], [ -73.897433294297485, 40.741541401611542 ], [ -73.897431857093665, 40.741574394932442 ], [ -73.897428874027312, 40.741604830335255 ], [ -73.897424542159968, 40.741633134835865 ], [ -73.897419600203719, 40.741661664820306 ], [ -73.897415385952854, 40.741678167371866 ], [ -73.897403161962785, 40.741717904890621 ], [ -73.897399466373017, 40.741728195301313 ], [ -73.897399123924842, 40.741729148633816 ], [ -73.897393283280309, 40.741745407499018 ], [ -73.897385493602883, 40.74176181771363 ], [ -73.89737686087426, 40.741778272201827 ], [ -73.897367492064745, 40.741794501807021 ], [ -73.897357403792284, 40.741810478628082 ], [ -73.897346611467498, 40.741826190071436 ], [ -73.8973351269739, 40.741841607331267 ], [ -73.897326867246889, 40.741851865755095 ], [ -73.896569872861619, 40.742531010414304 ], [ -73.896617313023512, 40.742295530657252 ], [ -73.896633837058587, 40.742213510148126 ], [ -73.896905232360496, 40.74086737196442 ], [ -73.896929652985818, 40.740750649293943 ] ] ] } },
{ "type": "Feature", "properties": { "group_id": "N3-041", "n_parks": 2, "extent_km": 0.38, "max_walk_m": 311.6, "park_area_acres": 0.56, "hull_area_acres": 2.93, "boroughs": "Q", "members": "Edgemere Coalition; Beach 43rd Street Waterfront Park" }, "geometry": { "type": "Polygon", "coordinates": [ [ [ -73.774935393999073, 40.5980111635782 ], [ -73.775327387520193, 40.601346479297213 ], [ -73.77533367166032, 40.601402339448015 ], [ -73.775353970677955, 40.601582791227685 ], [ -73.775021528875754, 40.601725932267691 ], [ -73.774996310875736, 40.601508369165337 ], [ -73.774619048412475, 40.598253276620667 ], [ -73.774593874407842, 40.598036056537417 ], [ -73.774935393999073, 40.5980111635782 ] ] ] } },
{ "type": "Feature", "properties": { "group_id": "N3-042", "n_parks": 2, "extent_km": 0.688, "max_walk_m": 410.8, "park_area_acres": 45.82, "hull_area_acres": 112.61, "boroughs": "R", "members": "Meredith Woods (7/25); Meredith Woods" }, "geometry": { "type": "Polygon", "coordinates": [ [ [ -74.18901473622806, 40.595204400544645 ], [ -74.194222421596805, 40.596086281292337 ], [ -74.196737681278904, 40.596710572639822 ], [ -74.19691082762786, 40.596814576672053 ], [ -74.197275574700114, 40.597173518055321 ], [ -74.197322995714543, 40.597379301110912 ], [ -74.197295107379446, 40.59768950503414 ], [ -74.1971852557147, 40.598288064343365 ], [ -74.196797108590289, 40.598745174126002 ], [ -74.186203826944137, 40.601693747454433 ], [ -74.184847221932415, 40.59829821429711 ], [ -74.18901473622806, 40.595204400544645 ] ] ] } },
{ "type": "Feature", "properties": { "group_id": "N3-043", "n_parks": 2, "extent_km": 0.573, "max_walk_m": 547.0, "park_area_acres": 1.05, "hull_area_acres": 7.22, "boroughs": "X", "members": "Drew Playground; Garden" }, "geometry": { "type": "Polygon", "coordinates": [ [ [ -73.906177521266585, 40.828383681554868 ], [ -73.906422316875776, 40.828476937659694 ], [ -73.906373799167682, 40.828599836625607 ], [ -73.903842093813282, 40.833020055511845 ], [ -73.903518801586316, 40.833505096378815 ], [ -73.902821723095315, 40.833270744474362 ], [ -73.903147884202397, 40.832786937123714 ], [ -73.906054866455804, 40.828493235039076 ], [ -73.906177521266585, 40.828383681554868 ] ] ] } },
{ "type": "Feature", "properties": { "group_id": "N3-044", "n_parks": 2, "extent_km": 0.418, "max_walk_m": 419.3, "park_area_acres": 0.59, "hull_area_acres": 4.38, "boroughs": "X", "members": "Hilton White Playground; Franklin Memorial Garden" }, "geometry": { "type": "Polygon", "coordinates": [ [ [ -73.907276172759651, 40.822560847690397 ], [ -73.907638250122091, 40.822646879936542 ], [ -73.907422666287232, 40.823165074163775 ], [ -73.905470085892674, 40.826388385251995 ], [ -73.905033339577813, 40.826284350523323 ], [ -73.9050762625875, 40.826180642437812 ], [ -73.907276172759651, 40.822560847690397 ] ] ] } },
{ "type": "Feature", "properties": { "group_id": "N3-045", "n_parks": 2, "extent_km": 0.607, "max_walk_m": 473.0, "park_area_acres": 3.55, "hull_area_acres": 9.38, "boroughs": "X", "members": "Siren Slope; Bailey Playground" }, "geometry": { "type": "Polygon", "coordinates": [ [ [ -73.90397941402091, 40.876446765560488 ], [ -73.903985865289656, 40.876446864578675 ], [ -73.903992365834043, 40.876447345444404 ], [ -73.903998002342064, 40.876448081329549 ], [ -73.904002871069878, 40.87644896065391 ], [ -73.904007345726072, 40.876449979225896 ], [ -73.90401099591044, 40.876450965594863 ], [ -73.90408353357418, 40.87647878344729 ], [ -73.903983853586766, 40.876918995937366 ], [ -73.903960684363, 40.877021315307076 ], [ -73.901266026487377, 40.88092109550054 ], [ -73.898472285363013, 40.884189877273542 ], [ -73.898449774025863, 40.884175865706041 ], [ -73.898472206635205, 40.883807901509428 ], [ -73.900768046668787, 40.880644496162397 ], [ -73.903626901657432, 40.876815421448981 ], [ -73.90390988743728, 40.876476391377416 ], [ -73.903913369018582, 40.876472549192599 ], [ -73.90391971484722, 40.876466802158703 ], [ -73.903926171825006, 40.876462130399673 ], [ -73.903934376360453, 40.876457421373999 ], [ -73.90394307671869, 40.876453584432817 ], [ -73.90395172939408, 40.876450726281675 ], [ -73.903958281603366, 40.876449113557783 ], [ -73.903965948589033, 40.876447777310467 ], [ -73.903972677453169, 40.876447063419768 ], [ -73.90397941402091, 40.876446765560488 ] ] ] } },
{ "type": "Feature", "properties": { "group_id": "N3-046", "n_parks": 2, "extent_km": 0.037, "max_walk_m": 0.0, "park_area_acres": 0.38, "hull_area_acres": 0.48, "boroughs": "X", "members": "Freeman Garden; Synergi Urban Garden UCFP" }, "geometry": { "type": "Polygon", "coordinates": [ [ [ -73.891298402924591, 40.829021066947035 ], [ -73.89132114171565, 40.829157835836654 ], [ -73.891315266891169, 40.829573347759904 ], [ -73.891238876635754, 40.829638602188616 ], [ -73.891226956435318, 40.829639184372645 ], [ -73.890971854200217, 40.829636412185835 ], [ -73.890973027735157, 40.829501922488781 ], [ -73.890976022583629, 40.829158838315166 ], [ -73.890977198900615, 40.829024087466237 ], [ -73.891298402924591, 40.829021066947035 ] ] ] } },
{ "type": "Feature", "properties": { "group_id": "N3-047", "n_parks": 2, "extent_km": 0.584, "max_walk_m": 567.9, "park_area_acres": 0.32, "hull_area_acres": 5.06, "boroughs": "X", "members": "Las Casitas Community Garden; Woodycrest Community Garden" }, "geometry": { "type": "Polygon", "coordinates": [ [ [ -73.929263168094963, 40.831150193551927 ], [ -73.929614290773429, 40.831261439399356 ], [ -73.92953923070246, 40.831395074725812 ], [ -73.925487935382321, 40.835742375341283 ], [ -73.925169993699981, 40.835599383530294 ], [ -73.925319829714851, 40.835405205317912 ], [ -73.929263168094963, 40.831150193551927 ] ] ] } }
]
}
